start=new Date('2021-08-24T00:00:00.000Z').valueOf();
sats=[{"COUNTRY_CODE":"US","MEAN_MOTION_DDOT":"0.0000000000000","FILE":"3102124","CENTER_NAME":"EARTH","MEAN_ANOMALY":"245.4244","TLE_LINE1":"1 47667U 21012AZ  21235.73508453  .00000100  00000-0  25626-4 0  9990","LAUNCH_DATE":"2021-02-16","OBJECT_TYPE":"PAYLOAD","MEAN_MOTION_DOT":"0.00000100","GP_ID":"183330421","RA_OF_ASC_NODE":"318.9499","OBJECT_NAME":"STARLINK-2058","CLASSIFICATION_TYPE":"U","OBJECT_ID":"2021-012AZ","NORAD_CAT_ID":"47667","APOAPSIS":"547.910","BSTAR":"0.00002562600000","EPHEMERIS_TYPE":"0","ARG_OF_PERICENTER":"114.6850","MEAN_ELEMENT_THEORY":"SGP4","REV_AT_EPOCH":"2992","ECCENTRICITY":"0.00010100","TLE_LINE2":"2 47667  53.0574 318.9499 0001010 114.6850 245.4244 15.06400843 29924","REF_FRAME":"TEME","SITE":"AFETR","PERIAPSIS":"546.512","PERIOD":"95.592","RCS_SIZE":"LARGE","TIME_SYSTEM":"UTC","DECAY_DATE":null,"MEAN_MOTION":"15.06400843","ELEMENT_SET_NO":"999","SEMIMAJOR_AXIS":"6925.346","EPOCH":"2021-08-23T17:38:31.303392","INCLINATION":"53.0574"},{"RA_OF_ASC_NODE":"298.1796","OBJECT_NAME":"STARLINK-2059","MEAN_MOTION_DOT":"-0.00001246","GP_ID":"183330672","OBJECT_ID":"2021-012BA","CLASSIFICATION_TYPE":"U","CENTER_NAME":"EARTH","COUNTRY_CODE":"US","FILE":"3102124","MEAN_MOTION_DDOT":"0.0000000000000","TLE_LINE1":"1 47668U 21012BA  21235.91017619 -.00001246  00000-0 -64827-4 0  9990","OBJECT_TYPE":"PAYLOAD","LAUNCH_DATE":"2021-02-16","MEAN_ANOMALY":"259.6480","RCS_SIZE":"LARGE","PERIOD":"95.593","SITE":"AFETR","PERIAPSIS":"546.833","EPOCH":"2021-08-23T21:50:39.222816","SEMIMAJOR_AXIS":"6925.375","INCLINATION":"53.0559","TIME_SYSTEM":"UTC","ELEMENT_SET_NO":"999","DECAY_DATE":null,"MEAN_MOTION":"15.06391237","BSTAR":"-0.00006482700000","APOAPSIS":"547.648","ARG_OF_PERICENTER":"100.4576","MEAN_ELEMENT_THEORY":"SGP4","EPHEMERIS_TYPE":"0","NORAD_CAT_ID":"47668","TLE_LINE2":"2 47668  53.0559 298.1796 0000589 100.4576 259.6480 15.06391237 30258","REF_FRAME":"TEME","REV_AT_EPOCH":"3025","ECCENTRICITY":"0.00005890"},{"OBJECT_ID":"2021-012BB","CLASSIFICATION_TYPE":"U","RA_OF_ASC_NODE":"243.9792","OBJECT_NAME":"STARLINK-2060","MEAN_MOTION_DOT":"0.00020865","GP_ID":"183330923","TLE_LINE1":"1 47669U 21012BB  21235.75492159  .00020865  00000-0  15270-3 0  9992","OBJECT_TYPE":"PAYLOAD","LAUNCH_DATE":"2021-02-16","MEAN_ANOMALY":"347.1390","CENTER_NAME":"EARTH","COUNTRY_CODE":"US","FILE":"3102124","MEAN_MOTION_DDOT":"0.0000000000000","EPOCH":"2021-08-23T18:07:05.225376","SEMIMAJOR_AXIS":"6727.923","INCLINATION":"53.0425","TIME_SYSTEM":"UTC","ELEMENT_SET_NO":"999","DECAY_DATE":null,"MEAN_MOTION":"15.73190212","RCS_SIZE":"MEDIUM","PERIOD":"91.534","SITE":"AFETR","PERIAPSIS":"346.617","TLE_LINE2":"2 47669  53.0425 243.9792 0004714  12.9748 347.1390 15.73190212 30973","REF_FRAME":"TEME","REV_AT_EPOCH":"3097","ECCENTRICITY":"0.00047140","BSTAR":"0.00015270000000","APOAPSIS":"352.960","ARG_OF_PERICENTER":"12.9748","MEAN_ELEMENT_THEORY":"SGP4","EPHEMERIS_TYPE":"0","NORAD_CAT_ID":"47669"},{"OBJECT_NAME":"STARLINK-2062","RA_OF_ASC_NODE":"301.0826","GP_ID":"183303728","MEAN_MOTION_DOT":"0.00000396","OBJECT_ID":"2021-012BC","CLASSIFICATION_TYPE":"U","CENTER_NAME":"EARTH","FILE":"3101910","MEAN_MOTION_DDOT":"0.0000000000000","COUNTRY_CODE":"US","OBJECT_TYPE":"PAYLOAD","LAUNCH_DATE":"2021-02-16","TLE_LINE1":"1 47670U 21012BC  21235.26145751  .00000396  00000-0  45693-4 0  9993","MEAN_ANOMALY":"214.4483","RCS_SIZE":"LARGE","PERIOD":"95.592","PERIAPSIS":"540.873","SITE":"AFETR","INCLINATION":"53.0509","EPOCH":"2021-08-23T06:16:29.928864","SEMIMAJOR_AXIS":"6925.365","ELEMENT_SET_NO":"999","MEAN_MOTION":"15.06394701","DECAY_DATE":null,"TIME_SYSTEM":"UTC","ARG_OF_PERICENTER":"145.7100","MEAN_ELEMENT_THEORY":"SGP4","EPHEMERIS_TYPE":"0","BSTAR":"0.00004569300000","APOAPSIS":"553.587","NORAD_CAT_ID":"47670","REF_FRAME":"TEME","TLE_LINE2":"2 47670  53.0509 301.0826 0009179 145.7100 214.4483 15.06394701 30142","ECCENTRICITY":"0.00091790","REV_AT_EPOCH":"3014"},{"OBJECT_ID":"2021-012BD","CLASSIFICATION_TYPE":"U","RA_OF_ASC_NODE":"298.1916","OBJECT_NAME":"STARLINK-2064","MEAN_MOTION_DOT":"0.00000389","GP_ID":"183329921","TLE_LINE1":"1 47671U 21012BD  21235.90648815  .00000389  00000-0  44976-4 0  9999","OBJECT_TYPE":"PAYLOAD","LAUNCH_DATE":"2021-02-16","MEAN_ANOMALY":"249.5362","CENTER_NAME":"EARTH","COUNTRY_CODE":"US","FILE":"3102124","MEAN_MOTION_DDOT":"0.0000000000000","EPOCH":"2021-08-23T21:45:20.576160","SEMIMAJOR_AXIS":"6925.381","INCLINATION":"53.0551","TIME_SYSTEM":"UTC","ELEMENT_SET_NO":"999","DECAY_DATE":null,"MEAN_MOTION":"15.06389497","RCS_SIZE":"LARGE","PERIOD":"95.593","SITE":"AFETR","PERIAPSIS":"546.769","TLE_LINE2":"2 47671  53.0551 298.1916 0000689 110.5701 249.5362 15.06389497 30253","REF_FRAME":"TEME","REV_AT_EPOCH":"3025","ECCENTRICITY":"0.00006890","BSTAR":"0.00004497600000","APOAPSIS":"547.723","ARG_OF_PERICENTER":"110.5701","MEAN_ELEMENT_THEORY":"SGP4","EPHEMERIS_TYPE":"0","NORAD_CAT_ID":"47671"},{"TLE_LINE1":"1 47672U 21012BE  21235.88528365  .00000459  00000-0  49670-4 0  9998","OBJECT_TYPE":"PAYLOAD","LAUNCH_DATE":"2021-02-16","MEAN_ANOMALY":"198.6066","CENTER_NAME":"EARTH","COUNTRY_CODE":"US","FILE":"3102124","MEAN_MOTION_DDOT":"0.0000000000000","OBJECT_ID":"2021-012BE","CLASSIFICATION_TYPE":"U","RA_OF_ASC_NODE":"288.2955","OBJECT_NAME":"STARLINK-2065","MEAN_MOTION_DOT":"0.00000459","GP_ID":"183331173","TLE_LINE2":"2 47672  53.0482 288.2955 0000478 161.4940 198.6066 15.06401805 30361","REF_FRAME":"TEME","REV_AT_EPOCH":"3036","ECCENTRICITY":"0.00004780","BSTAR":"0.00004967000000","APOAPSIS":"547.539","MEAN_ELEMENT_THEORY":"SGP4","ARG_OF_PERICENTER":"161.4940","EPHEMERIS_TYPE":"0","NORAD_CAT_ID":"47672","EPOCH":"2021-08-23T21:14:48.507360","SEMIMAJOR_AXIS":"6925.343","INCLINATION":"53.0482","TIME_SYSTEM":"UTC","ELEMENT_SET_NO":"999","DECAY_DATE":null,"MEAN_MOTION":"15.06401805","RCS_SIZE":"LARGE","PERIOD":"95.592","SITE":"AFETR","PERIAPSIS":"546.877"},{"OBJECT_ID":"2021-012BF","CLASSIFICATION_TYPE":"U","RA_OF_ASC_NODE":"299.2677","OBJECT_NAME":"STARLINK-2066","MEAN_MOTION_DOT":"0.00000366","GP_ID":"183331424","TLE_LINE1":"1 47673U 21012BF  21235.66321691  .00000366  00000-0  43482-4 0  9990","LAUNCH_DATE":"2021-02-16","OBJECT_TYPE":"PAYLOAD","MEAN_ANOMALY":"249.3192","CENTER_NAME":"EARTH","COUNTRY_CODE":"US","MEAN_MOTION_DDOT":"0.0000000000000","FILE":"3102124","SEMIMAJOR_AXIS":"6925.370","EPOCH":"2021-08-23T15:55:01.941024","INCLINATION":"53.0553","TIME_SYSTEM":"UTC","MEAN_MOTION":"15.06393100","DECAY_DATE":null,"ELEMENT_SET_NO":"999","PERIOD":"95.593","RCS_SIZE":"LARGE","SITE":"AFETR","PERIAPSIS":"546.780","TLE_LINE2":"2 47673  53.0553 299.2677 0000657 110.7867 249.3192 15.06393100 30203","REF_FRAME":"TEME","REV_AT_EPOCH":"3020","ECCENTRICITY":"0.00006570","APOAPSIS":"547.690","BSTAR":"0.00004348200000","EPHEMERIS_TYPE":"0","MEAN_ELEMENT_THEORY":"SGP4","ARG_OF_PERICENTER":"110.7867","NORAD_CAT_ID":"47673"},{"MEAN_ANOMALY":"240.9545","TLE_LINE1":"1 47674U 21012BG  21235.87699794  .00000727  00000-0  67675-4 0  9997","LAUNCH_DATE":"2021-02-16","OBJECT_TYPE":"PAYLOAD","COUNTRY_CODE":"US","MEAN_MOTION_DDOT":"0.0000000000000","FILE":"3102124","CENTER_NAME":"EARTH","CLASSIFICATION_TYPE":"U","OBJECT_ID":"2021-012BG","MEAN_MOTION_DOT":"0.00000727","GP_ID":"183330172","RA_OF_ASC_NODE":"298.3125","OBJECT_NAME":"STARLINK-2067","REV_AT_EPOCH":"3024","ECCENTRICITY":"0.00006070","TLE_LINE2":"2 47674  53.0524 298.3125 0000607 119.1504 240.9545 15.06391401 30241","REF_FRAME":"TEME","NORAD_CAT_ID":"47674","APOAPSIS":"547.660","BSTAR":"0.00006767500000","EPHEMERIS_TYPE":"0","MEAN_ELEMENT_THEORY":"SGP4","ARG_OF_PERICENTER":"119.1504","TIME_SYSTEM":"UTC","DECAY_DATE":null,"MEAN_MOTION":"15.06391401","ELEMENT_SET_NO":"999","SEMIMAJOR_AXIS":"6925.375","EPOCH":"2021-08-23T21:02:52.622016","INCLINATION":"53.0524","SITE":"AFETR","PERIAPSIS":"546.820","PERIOD":"95.593","RCS_SIZE":"LARGE"},{"ECCENTRICITY":"0.00006410","REV_AT_EPOCH":"3024","REF_FRAME":"TEME","TLE_LINE2":"2 47675  53.0514 298.3458 0000641 118.3294 241.7759 15.06394436 30242","NORAD_CAT_ID":"47675","ARG_OF_PERICENTER":"118.3294","MEAN_ELEMENT_THEORY":"SGP4","EPHEMERIS_TYPE":"0","BSTAR":"-0.00007749500000","APOAPSIS":"547.675","ELEMENT_SET_NO":"999","MEAN_MOTION":"15.06394436","DECAY_DATE":null,"TIME_SYSTEM":"UTC","INCLINATION":"53.0514","EPOCH":"2021-08-23T20:52:16.445856","SEMIMAJOR_AXIS":"6925.366","PERIAPSIS":"546.787","SITE":"AFETR","RCS_SIZE":"LARGE","PERIOD":"95.592","MEAN_ANOMALY":"241.7759","OBJECT_TYPE":"PAYLOAD","LAUNCH_DATE":"2021-02-16","TLE_LINE1":"1 47675U 21012BH  21235.86963479 -.00001435  00000-0 -77495-4 0  9991","FILE":"3102124","MEAN_MOTION_DDOT":"0.0000000000000","COUNTRY_CODE":"US","CENTER_NAME":"EARTH","CLASSIFICATION_TYPE":"U","OBJECT_ID":"2021-012BH","GP_ID":"183330422","MEAN_MOTION_DOT":"-0.00001435","OBJECT_NAME":"STARLINK-2078","RA_OF_ASC_NODE":"298.3458"},{"REF_FRAME":"TEME","TLE_LINE2":"2 47676  53.0432 243.9851 0004632   9.1938 350.9164 15.73209483 30975","ECCENTRICITY":"0.00046320","REV_AT_EPOCH":"3097","EPHEMERIS_TYPE":"0","ARG_OF_PERICENTER":"9.1938","MEAN_ELEMENT_THEORY":"SGP4","APOAPSIS":"352.849","BSTAR":"0.00005002900000","NORAD_CAT_ID":"47676","INCLINATION":"53.0432","SEMIMAJOR_AXIS":"6727.868","EPOCH":"2021-08-23T18:08:00.650112","DECAY_DATE":null,"MEAN_MOTION":"15.73209483","ELEMENT_SET_NO":"999","TIME_SYSTEM":"UTC","PERIOD":"91.533","RCS_SIZE":"LARGE","PERIAPSIS":"346.617","SITE":"AFETR","LAUNCH_DATE":"2021-02-16","OBJECT_TYPE":"PAYLOAD","TLE_LINE1":"1 47676U 21012BJ  21235.75556308  .00006408  00000-0  50029-4 0  9996","MEAN_ANOMALY":"350.9164","CENTER_NAME":"EARTH","MEAN_MOTION_DDOT":"0.0000000000000","FILE":"3102124","COUNTRY_CODE":"US","OBJECT_ID":"2021-012BJ","CLASSIFICATION_TYPE":"U","OBJECT_NAME":"STARLINK-2083","RA_OF_ASC_NODE":"243.9851","GP_ID":"183330673","MEAN_MOTION_DOT":"0.00006408"}];
